{"type": "FeatureCollection", "features": [ {"type": "Feature", "properties": {"norad_id": 43010, "name": "FENGYUN 3D", "group": "weather", "lat": 0.5935526605184157, "lon": 131.67547490315337, "alt_km": 828.6473272097, "timestamp": "2025-12-11T07:02:23.376455+00:00", "meta": {"OBJECT_NAME": "FENGYUN 3D", "OBJECT_ID": "2017-072A", "EPOCH": "2025-12-10T21:44:26.475936", "MEAN_MOTION": 14.1968216, "ECCENTRICITY": 8.536e-05, "INCLINATION": 98.9893, "RA_OF_ASC_NODE": 311.1883, "ARG_OF_PERICENTER": 189.1616, "MEAN_ANOMALY": 170.9544, "EPHEMERIS_TYPE": 0, "CLASSIFICATION_TYPE": "U", "NORAD_CAT_ID": 43010, "ELEMENT_SET_NO": 999, "REV_AT_EPOCH": 41827, "BSTAR": 3.4176777e-05, "MEAN_MOTION_DOT": 2.6e-07, "MEAN_MOTION_DDOT": 0}, "tle": {"line1": "1 43010U 17072A   25344.90586199  .00000026  00000+0  34177-4 0  9993", "line2": "2 43010  98.9893 311.1883 0000853 189.1616 170.9544 14.19682160418279"}}, "geometry": {"type": "Point", "coordinates": [131.67547490315337, 0.5935526605184157]}}, {"type": "Feature", "properties": {"norad_id": 43013, "name": "NOAA 20 (JPSS-1)", "group": "weather", "lat": -27.30441750525773, "lon": -73.82883776729192, "alt_km": 833.3463744303326, "timestamp": "2025-12-11T07:02:23.376466+00:00", "meta": {"OBJECT_NAME": "NOAA 20 (JPSS-1)", "OBJECT_ID": "2017-073A", "EPOCH": "2025-12-10T21:01:11.576352", "MEAN_MOTION": 14.19524941, "ECCENTRICITY": 0.00021522, "INCLINATION": 98.7596, "RA_OF_ASC_NODE": 281.193, "ARG_OF_PERICENTER": 89.8521, "MEAN_ANOMALY": 270.2902, "EPHEMERIS_TYPE": 0, "CLASSIFICATION_TYPE": "U", "NORAD_CAT_ID": 43013, "ELEMENT_SET_NO": 999, "REV_AT_EPOCH": 41775, "BSTAR": 0.0001046428, "MEAN_MOTION_DOT": 1.77e-06, "MEAN_MOTION_DDOT": 0}, "tle": {"line1": "1 43013U 17073A   25344.87582843  .00000177  00000+0  10464-3 0  9994", "line2": "2 43013  98.7596 281.1930 0002152  89.8521 270.2902 14.19524941417750"}}, "geometry": {"type": "Point", "coordinates": [-73.82883776729192, -27.30441750525773]}}, {"type": "Feature", "properties": {"norad_id": 43226, "name": "GOES 17", "group": "weather", "lat": 0.07434441308758578, "lon": 96.35460690644223, "alt_km": 35800.29821388722, "timestamp": "2025-12-11T07:02:23.376479+00:00", "meta": {"OBJECT_NAME": "GOES 17", "OBJECT_ID": "2018-022A", "EPOCH": "2025-12-10T19:57:54.165888", "MEAN_MOTION": 1.00271611, "ECCENTRICITY": 0.00033451, "INCLINATION": 0.4552, "RA_OF_ASC_NODE": 89.1343, "ARG_OF_PERICENTER": 187.0598, "MEAN_ANOMALY": 13.5882, "EPHEMERIS_TYPE": 0, "CLASSIFICATION_TYPE": "U", "NORAD_CAT_ID": 43226, "ELEMENT_SET_NO": 999, "REV_AT_EPOCH": 2853, "BSTAR": 0, "MEAN_MOTION_DOT": -1.78e-06, "MEAN_MOTION_DDOT": 0}, "tle": {"line1": "1 43226U 18022A   25344.83187692 -.00000178  00000+0  00000+0 0  9997", "line2": "2 43226   0.4552  89.1343 0003345 187.0598  13.5882  1.00271611 28530"}}, "geometry": {"type": "Point", "coordinates": [96.35460690644223, 0.07434441308758578]}}, {"type": "Feature", "properties": {"norad_id": 43491, "name": "FENGYUN 2H", "group": "weather", "lat": -0.19077689995759306, "lon": -94.7812078315038, "alt_km": 35774.58944858538, "timestamp": "2025-12-11T07:02:23.376492+00:00", "meta": {"OBJECT_NAME": "FENGYUN 2H", "OBJECT_ID": "2018-050A", "EPOCH": "2025-12-10T20:46:04.550880", "MEAN_MOTION": 1.00271047, "ECCENTRICITY": 0.00029161, "INCLINATION": 2.5463, "RA_OF_ASC_NODE": 81.3471, "ARG_OF_PERICENTER": 165.8148, "MEAN_ANOMALY": 223.5516, "EPHEMERIS_TYPE": 0, "CLASSIFICATION_TYPE": "U", "NORAD_CAT_ID": 43491, "ELEMENT_SET_NO": 999, "REV_AT_EPOCH": 2755, "BSTAR": 0, "MEAN_MOTION_DOT": -1.25e-06, "MEAN_MOTION_DDOT": 0}, "tle": {"line1": "1 43491U 18050A   25344.86533045 -.00000125  00000+0  00000+0 0  9994", "line2": "2 43491   2.5463  81.3471 0002916 165.8148 223.5516  1.00271047 27553"}}, "geometry": {"type": "Point", "coordinates": [-94.7812078315038, -0.19077689995759306]}}, {"type": "Feature", "properties": {"norad_id": 43689, "name": "METOP-C", "group": "weather", "lat": 74.11183238423988, "lon": -104.40027269934224, "alt_km": 812.7953043744719, "timestamp": "2025-12-11T07:02:23.376504+00:00", "meta": {"OBJECT_NAME": "METOP-C", "OBJECT_ID": "2018-087A", "EPOCH": "2025-12-10T22:06:32.353056", "MEAN_MOTION": 14.21483024, "ECCENTRICITY": 0.00013643, "INCLINATION": 98.693, "RA_OF_ASC_NODE": 42.719, "ARG_OF_PERICENTER": 41.1277, "MEAN_ANOMALY": 319.0003, "EPHEMERIS_TYPE": 0, "CLASSIFICATION_TYPE": "U", "NORAD_CAT_ID": 43689, "ELEMENT_SET_NO": 999, "REV_AT_EPOCH": 36808, "BSTAR": 0.00011366209, "MEAN_MOTION_DOT": 2.05e-06, "MEAN_MOTION_DDOT": 0}, "tle": {"line1": "1 43689U 18087A   25344.92120779  .00000205  00000+0  11366-3 0  9995", "line2": "2 43689  98.6930  42.7190 0001364  41.1277 319.0003 14.21483024368086"}}, "geometry": {"type": "Point", "coordinates": [-104.40027269934224, 74.11183238423988]}}, {"type": "Feature", "properties": {"norad_id": 43823, "name": "GEO-KOMPSAT-2A", "group": "weather", "lat": -0.010402938520192757, "lon": -45.896370730196594, "alt_km": 35787.05382639108, "timestamp": "2025-12-11T07:02:23.376515+00:00", "meta": {"OBJECT_NAME": "GEO-KOMPSAT-2A", "OBJECT_ID": "2018-100A", "EPOCH": "2025-12-10T21:00:03.213216", "MEAN_MOTION": 1.00269356, "ECCENTRICITY": 5.56e-06, "INCLINATION": 0.0424, "RA_OF_ASC_NODE": 144.1985, "ARG_OF_PERICENTER": 1.5245, "MEAN_ANOMALY": 17.3918, "EPHEMERIS_TYPE": 0, "CLASSIFICATION_TYPE": "U", "NORAD_CAT_ID": 43823, "ELEMENT_SET_NO": 999, "REV_AT_EPOCH": 2574, "BSTAR": 0, "MEAN_MOTION_DOT": -3.39e-06, "MEAN_MOTION_DDOT": 0}, "tle": {"line1": "1 43823U 18100A   25344.87503719 -.00000339  00000+0  00000+0 0  9992", "line2": "2 43823   0.0424 144.1985 0000055   1.5245  17.3918  1.00269356 25740"}}, "geometry": {"type": "Point", "coordinates": [-45.896370730196594, -0.010402938520192757]}}, {"type": "Feature", "properties": {"norad_id": 44387, "name": "METEOR-M2 2", "group": "weather", "lat": 16.91491514242696, "lon": 147.73431739901656, "alt_km": 810.5113844661082, "timestamp": "2025-12-11T07:02:23.376527+00:00", "meta": {"OBJECT_NAME": "METEOR-M2 2", "OBJECT_ID": "2019-038A", "EPOCH": "2025-12-10T21:50:53.373408", "MEAN_MOTION": 14.24290551, "ECCENTRICITY": 0.00012009, "INCLINATION": 98.8973, "RA_OF_ASC_NODE": 324.6162, "ARG_OF_PERICENTER": 152.3168, "MEAN_ANOMALY": 207.8075, "EPHEMERIS_TYPE": 0, "CLASSIFICATION_TYPE": "U", "NORAD_CAT_ID": 44387, "ELEMENT_SET_NO": 999, "REV_AT_EPOCH": 33449, "BSTAR": 0.00015583778, "MEAN_MOTION_DOT": 3.14e-06, "MEAN_MOTION_DDOT": 0}, "tle": {"line1": "1 44387U 19038A   25344.91033997  .00000314  00000+0  15584-3 0  9999", "line2": "2 44387  98.8973 324.6162 0001200 152.3168 207.8075 14.24290551334490"}}, "geometry": {"type": "Point", "coordinates": [147.73431739901656, 16.91491514242696]}}, {"type": "Feature", "properties": {"norad_id": 47719, "name": "ARKTIKA-M 1", "group": "weather", "lat": 62.97754478219255, "lon": 166.54775937438944, "alt_km": 39158.9197643452, "timestamp": "2025-12-11T07:02:23.376549+00:00", "meta": {"OBJECT_NAME": "ARKTIKA-M 1", "OBJECT_ID": "2021-016A", "EPOCH": "2025-12-09T14:03:23.859648", "MEAN_MOTION": 2.00631311, "ECCENTRICITY": 0.7202538, "INCLINATION": 63.1769, "RA_OF_ASC_NODE": 84.4506, "ARG_OF_PERICENTER": 269.1116, "MEAN_ANOMALY": 15.6235, "EPHEMERIS_TYPE": 0, "CLASSIFICATION_TYPE": "U", "NORAD_CAT_ID": 47719, "ELEMENT_SET_NO": 999, "REV_AT_EPOCH": 3498, "BSTAR": 0, "MEAN_MOTION_DOT": -6.1e-07, "MEAN_MOTION_DDOT": 0}, "tle": {"line1": "1 47719U 21016A   25343.58569282 -.00000061  00000+0  00000+0 0  9996", "line2": "2 47719  63.1769  84.4506 7202538 269.1116  15.6235  2.00631311 34985"}}, "geometry": {"type": "Point", "coordinates": [166.54775937438944, 62.97754478219255]}}, {"type": "Feature", "properties": {"norad_id": 49008, "name": "FENGYUN 3E", "group": "weather", "lat": 34.442846227765806, "lon": 171.89263612375413, "alt_km": 823.7539879667902, "timestamp": "2025-12-11T07:02:23.376563+00:00", "meta": {"OBJECT_NAME": "FENGYUN 3E", "OBJECT_ID": "2021-062A", "EPOCH": "2025-12-10T23:35:39.050304", "MEAN_MOTION": 14.1987996, "ECCENTRICITY": 5.964e-05, "INCLINATION": 98.7477, "RA_OF_ASC_NODE": 345.5246, "ARG_OF_PERICENTER": 278.3301, "MEAN_ANOMALY": 81.7807, "EPHEMERIS_TYPE": 0, "CLASSIFICATION_TYPE": "U", "NORAD_CAT_ID": 49008, "ELEMENT_SET_NO": 999, "REV_AT_EPOCH": 22987, "BSTAR": 9.590591e-05, "MEAN_MOTION_DOT": 1.6e-06, "MEAN_MOTION_DDOT": 0}, "tle": {"line1": "1 49008U 21062A   25344.98309086  .00000160  00000+0  95906-4 0  9992", "line2": "2 49008  98.7477 345.5246 0000596 278.3301  81.7807 14.19879960229871"}}, "geometry": {"type": "Point", "coordinates": [171.89263612375413, 34.442846227765806]}}, {"type": "Feature", "properties": {"norad_id": 51850, "name": "GOES 18", "group": "weather", "lat": 0.007095780716646412, "lon": 48.85625675322778, "alt_km": 35786.70971554001, "timestamp": "2025-12-11T07:02:23.376574+00:00", "meta": {"OBJECT_NAME": "GOES 18", "OBJECT_ID": "2022-021A", "EPOCH": "2025-12-10T18:01:35.306976", "MEAN_MOTION": 1.00271681, "ECCENTRICITY": 7.087e-05, "INCLINATION": 0.0198, "RA_OF_ASC_NODE": 208.618, "ARG_OF_PERICENTER": 97.8116, "MEAN_ANOMALY": 266.6878, "EPHEMERIS_TYPE": 0, "CLASSIFICATION_TYPE": "U", "NORAD_CAT_ID": 51850, "ELEMENT_SET_NO": 999, "REV_AT_EPOCH": 470, "BSTAR": 0, "MEAN_MOTION_DOT": 1.01e-06, "MEAN_MOTION_DDOT": 0}, "tle": {"line1": "1 51850U 22021A   25344.75110309  .00000101  00000+0  00000+0 0  9990", "line2": "2 51850   0.0198 208.6180 0000708  97.8116 266.6878  1.00271681  4701"}}, "geometry": {"type": "Point", "coordinates": [48.85625675322778, 0.007095780716646412]}}]}